STARLINK-6028           
1 56818U 23078BD  26068.88351326  .00003192  00000+0  27522-3 0  9991
2 56818  69.9992 343.7857 0002768 205.7559 154.3463 14.98325669153409
KUIPER-00106            
1 65144U 25171N   26068.44322937  .00004265  00000+0  38674-3 0  9999
2 65144  51.8933 156.0933 0007931  97.4823 262.7049 14.97188469 32902
